{
  "type": "FeatureCollection",
  "features": [
    {
      "type": "Feature",
      "properties": {
        "norad_id": 41003,
        "name": "FENGYUN 1C DEB",
        "group": "fengyun-1c-debris",
        "lat": -13.712676604500674,
        "lon": -78.98256036343129,
        "alt_km": 655.502875283205,
        "timestamp": "2025-12-24T11:33:00.307709+00:00",
        "meta_object_name": "FENGYUN 1C DEB",
        "meta_object_id": "1999-025EXH",
        "meta_epoch": "2025-12-23T12:47:40.559712",
        "meta_mean_motion": 14.73333109,
        "meta_eccentricity": 0.00681083,
        "meta_inclination": 98.9669,
        "meta_ra_of_asc_node": 277.7627,
        "meta_arg_of_pericenter": 258.0215,
        "meta_mean_anomaly": 101.335,
        "meta_ephemeris_type": 0,
        "meta_classification_type": "U",
        "meta_norad_cat_id": 41003,
        "meta_element_set_no": 999,
        "meta_rev_at_epoch": 52579,
        "meta_bstar": 0.0041297781,
        "meta_mean_motion_dot": 0.00027775,
        "meta_mean_motion_ddot": 0,
        "tle_line1": "1 41003U 99025EXH 25357.53310833  .00027775  00000+0  41298-2 0  9994",
        "tle_line2": "2 41003  98.9669 277.7627 0068108 258.0215 101.3350 14.73333109525796"
      },
      "geometry": {
        "type": "Point",
        "coordinates": [
          -78.98256036343129,
          -13.712676604500674
        ]
      }
    },
    {
      "type": "Feature",
      "properties": {
        "norad_id": 41006,
        "name": "FENGYUN 1C DEB",
        "group": "fengyun-1c-debris",
        "lat": 52.64098705364822,
        "lon": 69.68223334101907,
        "alt_km": 1052.1251805993843,
        "timestamp": "2025-12-24T11:33:00.307719+00:00",
        "meta_object_name": "FENGYUN 1C DEB",
        "meta_object_id": "1999-025EXL",
        "meta_epoch": "2025-12-19T21:45:46.059840",
        "meta_mean_motion": 13.85407302,
        "meta_eccentricity": 0.0190575,
        "meta_inclination": 102.3676,
        "meta_ra_of_asc_node": 226.9637,
        "meta_arg_of_pericenter": 351.9089,
        "meta_mean_anomaly": 7.8995,
        "meta_ephemeris_type": 0,
        "meta_classification_type": "U",
        "meta_norad_cat_id": 41006,
        "meta_element_set_no": 999,
        "meta_rev_at_epoch": 57588,
        "meta_bstar": 0.0020631,
        "meta_mean_motion_dot": 2.639e-05,
        "meta_mean_motion_ddot": 0,
        "tle_line1": "1 41006U 99025EXL 25353.90678310  .00002639  00000+0  20631-2 0  9991",
        "tle_line2": "2 41006 102.3676 226.9637 0190575 351.9089   7.8995 13.85407302575889"
      },
      "geometry": {
        "type": "Point",
        "coordinates": [
          69.68223334101907,
          52.64098705364822
        ]
      }
    },
    {
      "type": "Feature",
      "properties": {
        "norad_id": 41007,
        "name": "FENGYUN 1C DEB",
        "group": "fengyun-1c-debris",
        "lat": -26.90563323989131,
        "lon": 31.12739670081885,
        "alt_km": 852.4999895423798,
        "timestamp": "2025-12-24T11:33:00.307729+00:00",
        "meta_object_name": "FENGYUN 1C DEB",
        "meta_object_id": "1999-025EXM",
        "meta_epoch": "2025-11-29T06:55:22.773792",
        "meta_mean_motion": 13.85678237,
        "meta_eccentricity": 0.01723955,
        "meta_inclination": 99.9731,
        "meta_ra_of_asc_node": 359.205,
        "meta_arg_of_pericenter": 79.2855,
        "meta_mean_anomaly": 282.7657,
        "meta_ephemeris_type": 0,
        "meta_classification_type": "U",
        "meta_norad_cat_id": 41007,
        "meta_element_set_no": 999,
        "meta_rev_at_epoch": 57212,
        "meta_bstar": 0.0017167305,
        "meta_mean_motion_dot": 2.158e-05,
        "meta_mean_motion_ddot": 0,
        "tle_line1": "1 41007U 99025EXM 25333.28845803  .00002158  00000+0  17167-2 0  9990",
        "tle_line2": "2 41007  99.9731 359.2050 0172395  79.2855 282.7657 13.85678237572123"
      },
      "geometry": {
        "type": "Point",
        "coordinates": [
          31.12739670081885,
          -26.90563323989131
        ]
      }
    },
    {
      "type": "Feature",
      "properties": {
        "norad_id": 41011,
        "name": "FENGYUN 1C DEB",
        "group": "fengyun-1c-debris",
        "lat": 13.428444106706223,
        "lon": 42.187056820932135,
        "alt_km": 604.8871404645743,
        "timestamp": "2025-12-24T11:33:00.307739+00:00",
        "meta_object_name": "FENGYUN 1C DEB",
        "meta_object_id": "1999-025EXR",
        "meta_epoch": "2025-12-23T20:30:46.247616",
        "meta_mean_motion": 14.42971366,
        "meta_eccentricity": 0.0309356,
        "meta_inclination": 99.1668,
        "meta_ra_of_asc_node": 43.7219,
        "meta_arg_of_pericenter": 325.2752,
        "meta_mean_anomaly": 32.8581,
        "meta_ephemeris_type": 0,
        "meta_classification_type": "U",
        "meta_norad_cat_id": 41011,
        "meta_element_set_no": 999,
        "meta_rev_at_epoch": 57317,
        "meta_bstar": 0.00060457,
        "meta_mean_motion_dot": 3.552e-05,
        "meta_mean_motion_ddot": 0,
        "tle_line1": "1 41011U 99025EXR 25357.85470194  .00003552  00000+0  60457-3 0  9991",
        "tle_line2": "2 41011  99.1668  43.7219 0309356 325.2752  32.8581 14.42971366573179"
      },
      "geometry": {
        "type": "Point",
        "coordinates": [
          42.187056820932135,
          13.428444106706223
        ]
      }
    },
    {
      "type": "Feature",
      "properties": {
        "norad_id": 41018,
        "name": "FENGYUN 1C DEB",
        "group": "fengyun-1c-debris",
        "lat": 62.47064295052515,
        "lon": 142.55053923170303,
        "alt_km": 852.3522706688618,
        "timestamp": "2025-12-24T11:33:00.307749+00:00",
        "meta_object_name": "FENGYUN 1C DEB",
        "meta_object_id": "1999-025EXY",
        "meta_epoch": "2025-12-15T01:30:35.121600",
        "meta_mean_motion": 13.52371588,
        "meta_eccentricity": 0.03049079,
        "meta_inclination": 99.9356,
        "meta_ra_of_asc_node": 293.4577,
        "meta_arg_of_pericenter": 112.862,
        "meta_mean_anomaly": 250.5013,
        "meta_ephemeris_type": 0,
        "meta_classification_type": "U",
        "meta_norad_cat_id": 41018,
        "meta_element_set_no": 999,
        "meta_rev_at_epoch": 88206,
        "meta_bstar": 0.0022149287,
        "meta_mean_motion_dot": 1.917e-05,
        "meta_mean_motion_ddot": 0,
        "tle_line1": "1 41018U 99025EXY 25349.06290650  .00001917  00000+0  22149-2 0  9997",
        "tle_line2": "2 41018  99.9356 293.4577 0304907 112.8620 250.5013 13.52371588882060"
      },
      "geometry": {
        "type": "Point",
        "coordinates": [
          142.55053923170303,
          62.47064295052515
        ]
      }
    },
    {
      "type": "Feature",
      "properties": {
        "norad_id": 41822,
        "name": "FENGYUN 1C DEB",
        "group": "fengyun-1c-debris",
        "lat": -26.9873343302252,
        "lon": 69.11562697478784,
        "alt_km": 847.7022763779214,
        "timestamp": "2025-12-24T11:33:00.307759+00:00",
        "meta_object_name": "FENGYUN 1C DEB",
        "meta_object_id": "1999-025EXZ",
        "meta_epoch": "2025-12-24T03:15:10.080576",
        "meta_mean_motion": 14.24875657,
        "meta_eccentricity": 0.0055944,
        "meta_inclination": 98.7312,
        "meta_ra_of_asc_node": 64.2833,
        "meta_arg_of_pericenter": 188.1697,
        "meta_mean_anomaly": 171.8576,
        "meta_ephemeris_type": 0,
        "meta_classification_type": "U",
        "meta_norad_cat_id": 41822,
        "meta_element_set_no": 999,
        "meta_rev_at_epoch": 47535,
        "meta_bstar": 0.0015809,
        "meta_mean_motion_dot": 3.709e-05,
        "meta_mean_motion_ddot": 0,
        "tle_line1": "1 41822U 99025EXZ 25358.13553334  .00003709  00000+0  15809-2 0  9995",
        "tle_line2": "2 41822  98.7312  64.2833 0055944 188.1697 171.8576 14.24875657475350"
      },
      "geometry": {
        "type": "Point",
        "coordinates": [
          69.11562697478784,
          -26.9873343302252
        ]
      }
    },
    {
      "type": "Feature",
      "properties": {
        "norad_id": 41823,
        "name": "FENGYUN 1C DEB",
        "group": "fengyun-1c-debris",
        "lat": -10.396233789387386,
        "lon": 63.31720798153002,
        "alt_km": 853.3719741195846,
        "timestamp": "2025-12-24T11:33:00.307769+00:00",
        "meta_object_name": "FENGYUN 1C DEB",
        "meta_object_id": "1999-025EYA",
        "meta_epoch": "2025-12-24T03:09:56.448576",
        "meta_mean_motion": 14.23589428,
        "meta_eccentricity": 0.0055268,
        "meta_inclination": 98.7193,
        "meta_ra_of_asc_node": 61.3576,
        "meta_arg_of_pericenter": 195.6685,
        "meta_mean_anomaly": 164.2785,
        "meta_ephemeris_type": 0,
        "meta_classification_type": "U",
        "meta_norad_cat_id": 41823,
        "meta_element_set_no": 999,
        "meta_rev_at_epoch": 47520,
        "meta_bstar": 0.0014635,
        "meta_mean_motion_dot": 3.344e-05,
        "meta_mean_motion_ddot": 0,
        "tle_line1": "1 41823U 99025EYA 25358.13190334  .00003344  00000+0  14635-2 0  9994",
        "tle_line2": "2 41823  98.7193  61.3576 0055268 195.6685 164.2785 14.23589428475208"
      },
      "geometry": {
        "type": "Point",
        "coordinates": [
          63.31720798153002,
          -10.396233789387386
        ]
      }
    }
  ]
}